[{"OBJECT_NAME":"BUFENG 1B","OBJECT_ID":"2019-032B","EPOCH":"2026-03-09T19:57:27.457920","MEAN_MOTION":15.25619535,"ECCENTRICITY":0.00242037,"INCLINATION":44.9701,"RA_OF_ASC_NODE":192.0248,"ARG_OF_PERICENTER":123.8847,"MEAN_ANOMALY":236.4342,"EPHEMERIS_TYPE":0,"CLASSIFICATION_TYPE":"U","NORAD_CAT_ID":44311,"ELEMENT_SET_NO":999,"REV_AT_EPOCH":37256,"BSTAR":0.00059375374,"MEAN_MOTION_DOT":0.00015236,"MEAN_MOTION_DDOT":0},{"OBJECT_NAME":"STARLINK-2645","OBJECT_ID":"2021-040S","EPOCH":"2026-03-09T12:20:07.249920","MEAN_MOTION":15.30211266,"ECCENTRICITY":0.00010807,"INCLINATION":53.1606,"RA_OF_ASC_NODE":178.9451,"ARG_OF_PERICENTER":69.1744,"MEAN_ANOMALY":290.9373,"EPHEMERIS_TYPE":0,"CLASSIFICATION_TYPE":"U","NORAD_CAT_ID":48444,"ELEMENT_SET_NO":999,"REV_AT_EPOCH":26665,"BSTAR":0.00024115912,"MEAN_MOTION_DOT":6.792e-5,"MEAN_MOTION_DDOT":0}]
